{"type":"Feature","properties":{"ISO3166-1-Alpha-3":"SAH","country":"Western Sahara","id":null,"name":"Western Sahara"},
"geometry":{"type": "Polygon","coordinates": [[[-8.75256,27.66144,472.5796],[-8.81654,27.66147,472.2627],[-8.81703,27.66147,472.2627],[-8.81703,27.66146,472.2627],[-8.81845,27.6594,472.2015],[-8.81292,27.61335,470.9836],[-8.78362,27.53036,467.6611],[-8.77339,27.46003,463.3802],[-8.78801,27.41605,464.8271],[-8.80171,27.36042,462.8381],[-8.79584,27.30769,458.8714],[-8.77339,27.25007,451.5758],[-8.75287,27.19049,460.1426],[-8.75287,27.15046,460.6909],[-8.7939,27.12018,462.2382],[-8.88811,27.10357,465.4377],[-9.00092,27.08992,476.0619],[-9.08345,27.08992,470.8546],[-9.20747,27.09969,490.2617],[-9.28462,27.09773,504.1917],[-9.35201,27.09773,509.7765],[-9.41206,27.08796,516.6405],[-9.48632,27.04987,519.9509],[-9.56884,26.99029,528.7977],[-9.67235,26.91022,541.4155],[-9.73436,26.86043,533.4119],[-9.81686,26.84968,535.7032],[-9.89937,26.84968,541.0258],[-9.97993,26.88973,423.0858],[-10.03171,26.91022,417.217],[-10.06587,26.90828,407.318],[-10.12204,26.87996,466.2479],[-10.18844,26.86043,397.9969],[-10.25045,26.86043,361.2301],[-10.35396,26.90048,342.4085],[-10.47799,26.96004,306.2057],[-10.55028,26.99029,294.5803],[-10.65327,27.00006,301.9036],[-10.75678,27.01959,255.6761],[-10.82908,27.00983,265.6914],[-10.92184,27.00983,248.5541],[-11.04586,26.9698,232.9428],[-11.14937,26.9405,241.6977],[-11.26264,26.91022,209.3172],[-11.39157,26.88291,202.2787],[-11.36031,26.79304,195.3853],[-11.31587,26.74421,192.2086],[-11.31587,26.68364,213.1409],[-11.3369,26.6329,216.1315],[-11.39891,26.58308,223.849],[-11.46971,26.5196,264.4362],[-11.51069,26.46981,264.5202],[-11.55221,26.40046,272.9107],[-11.58298,26.36041,304.7188],[-11.63621,26.29499,310.4149],[-11.68355,26.21297,375.0676],[-11.69822,26.16218,369.8552],[-11.71724,26.10358,418.102],[-11.75388,26.08601,417.0359],[-11.87986,26.0704,387.783],[-11.95991,26.04988,369.815],[-12.02975,26.03035,397.7543],[-12.05582,25.99583,351.0615],[-12.05582,25.99583,351.0615],[-12.06001,25.9903,345.9294],[-12.08006,25.91997,352.3267],[-12.08006,25.8702,361.0141],[-12.10006,25.83016,361.0125],[-12.12985,25.73055,366.4586],[-12.16987,25.63973,325.9195],[-12.20015,25.51958,366.1135],[-12.22995,25.42,510.6748],[-12.26997,25.2598,432.6424],[-12.31002,25.11043,384.8491],[-12.35984,24.96979,361.3943],[-12.39988,24.87996,333.3351],[-12.43014,24.83017,277.9294],[-12.49998,24.7696,256.3964],[-12.56003,24.73053,284.7959],[-12.62984,24.67976,284.6374],[-12.70994,24.62997,274.0101],[-12.81978,24.57039,229.6398],[-12.91014,24.51959,220.865],[-12.94688,24.49675,212.236],[-12.94688,24.49675,212.236],[-12.99018,24.4698,220.9706],[-13.06002,24.40048,419.3192],[-13.1201,24.29986,301.4182],[-13.16012,24.21981,306.4853],[-13.22996,24.0899,396.2713],[-13.27975,24.01959,300.7281],[-13.31001,23.98055,298.1698],[-13.39011,23.9405,285.4415],[-13.47995,23.91022,297.8177],[-13.58004,23.8702,302.7548],[-13.66012,23.83012,323.2504],[-13.76998,23.79013,334.0828],[-13.8398,23.75008,343.2599],[-13.89013,23.69049,363.6661],[-13.93013,23.62019,349.8426],[-13.97994,23.5196,308.2795],[-14.01999,23.41025,314.8092],[-14.03999,23.33992,304.1778],[-14.10006,23.09968,268.4124],[-14.12009,22.96005,271.4889],[-14.14009,22.87018,311.9781],[-14.16991,22.75985,294.2632],[-14.1899,22.58991,295.7776],[-14.1899,22.45026,270.7329],[-14.20995,22.37019,272.2188],[-14.22019,22.30965,259.9671],[-14.27,22.2403,250.127],[-14.31005,22.19051,252.1562],[-14.37984,22.1202,244.3932],[-14.43991,22.08015,250.3894],[-14.45991,22.0401,243.2593],[-14.51999,21.99034,253.9104],[-14.58004,21.91024,239.0423],[-14.62985,21.86042,220.1205],[-14.62008,21.82037,221.387],[-14.60983,21.75007,209.1766],[-14.64011,21.67976,203.3481],[-14.66988,21.59966,195.2556],[-14.74997,21.50008,179.4537],[-14.83981,21.45027,176.9157],[-14.97017,21.4405,153.305],[-15.14987,21.4405,176.6513],[-15.28999,21.45027,169.0878],[-15.45993,21.45027,147.2449],[-15.60982,21.4698,121.2012],[-15.74996,21.49032,125.6193],[-15.91988,21.50008,133.653],[-16.04002,21.50008,116.3247],[-16.18989,21.48055,86.8801],[-16.58004,21.48055,25.231],[-16.72996,21.4698,16.9769],[-16.95015,21.42975,20.4736],[-17.01374,21.41997,8.0374],[-17.01525,21.37983,13.9685],[-17.01745,21.36506,14.0025],[-17.02676,21.32892,12.4258],[-17.06786,21.03091,0.0],[-17.08629,20.97932,0.0],[-17.0904,20.96182,0.0],[-17.0904,20.91401,1.0978],[-17.09227,20.89989,0.0],[-17.10139,20.87617,0.0],[-17.10464,20.86249,0.0],[-17.10021,20.83759,1.8368],[-17.06835,20.79247,0.0],[-17.05687,20.76691,0.0],[-17.08117,20.87475,1.8149],[-17.07743,20.90451,2.9944],[-17.05402,20.99546,2.7479],[-17.04738,21.0274,10.5838],[-17.00493,21.14191,12.5354],[-16.9857,21.23783,18.2715],[-16.96834,21.32459,18.7325],[-16.95883,21.33286,20.4263],[-16.84282,21.33286,5.9214],[-16.80142,21.33286,9.8847],[-16.68464,21.33291,23.2756],[-16.50315,21.33291,43.4396],[-16.26771,21.33291,78.193],[-15.98902,21.33301,119.3119],[-15.67808,21.33307,130.942],[-15.34554,21.33307,155.1031],[-15.00226,21.33317,148.392],[-14.65897,21.33317,168.5914],[-14.32649,21.33322,195.7543],[-14.2956,21.33323,201.3465],[-14.0155,21.33327,198.7052],[-13.73691,21.33332,186.4077],[-13.50142,21.33338,194.2611],[-13.31985,21.33338,311.9085],[-13.20309,21.33338,227.5523],[-13.16172,21.33343,223.3329],[-13.01525,21.33343,248.1831],[-13.02618,21.49533,247.569],[-13.03209,21.58194,263.6458],[-13.06034,21.9954,293.1664],[-13.07683,22.24544,346.2372],[-13.09333,22.49548,309.8311],[-13.10635,22.56023,296.8159],[-13.15498,22.6888,306.4971],[-13.1655,22.7527,301.9122],[-13.15229,22.82,309.7833],[-13.11989,22.88354,322.5932],[-13.03434,22.99516,310.9061],[-13.03434,22.99521,310.9061],[-13.01525,23.018,322.2643],[-12.9151,23.08205,317.4245],[-12.78994,23.16187,293.5451],[-12.68222,23.23075,255.1093],[-12.61943,23.27083,249.3226],[-12.55838,23.29028,257.9788],[-12.38991,23.31253,293.0591],[-12.35389,23.32248,320.8319],[-12.13458,23.41935,327.6255],[-12.03272,23.44498,327.0121],[-12.01934,23.461,323.3818],[-12.01531,23.49518,317.9377],[-12.01531,23.57593,302.7341],[-12.01531,23.65148,280.224],[-12.01531,23.72711,276.6721],[-12.01531,23.80273,265.3826],[-12.01531,23.87831,242.7379],[-12.01531,23.95394,245.494],[-12.01531,24.02954,244.1805],[-12.01531,24.10509,231.2395],[-12.01531,24.1807,213.7504],[-12.01531,24.2563,208.1902],[-12.01531,24.3319,219.5516],[-12.01531,24.40748,234.5462],[-12.01531,24.48308,249.4191],[-12.01531,24.55863,253.4603],[-12.01531,24.63426,265.1212],[-12.01531,24.70986,280.3995],[-12.01531,24.78546,292.7759],[-12.01531,24.86102,298.7111],[-12.01531,24.93662,315.3323],[-12.01531,25.01225,329.5271],[-12.01531,25.0878,347.1692],[-12.01531,25.16332,372.9859],[-12.01531,25.23893,405.5543],[-12.01531,25.31458,418.6103],[-12.01531,25.39018,470.7786],[-12.01531,25.46573,394.116],[-12.01531,25.54134,362.3588],[-12.01531,25.61694,341.4065],[-12.01531,25.69249,382.4845],[-12.01531,25.76809,474.9446],[-12.01531,25.84369,444.4105],[-12.01531,25.91925,360.7524],[-12.01531,25.9949,368.6834],[-11.91459,25.99495,384.7193],[-11.81382,25.99495,417.6653],[-11.71321,25.99495,355.7024],[-11.61244,25.99495,336.4318],[-11.51172,25.99495,386.7886],[-11.41095,25.99495,421.5337],[-11.31024,25.99495,459.4669],[-11.20952,25.99495,464.2289],[-11.10875,25.99495,440.2641],[-11.00808,25.99495,443.738],[-10.90731,25.99495,470.7221],[-10.8066,25.99495,508.3802],[-10.70588,25.99495,505.4557],[-10.60516,25.99495,494.19],[-10.50444,25.99495,488.2401],[-10.40368,25.99495,466.1282],[-10.30296,25.99495,455.4973],[-10.20229,25.99495,443.4477],[-10.10152,25.99495,427.5001],[-10.00081,25.99495,423.4743],[-9.90004,25.99495,421.0486],[-9.79937,25.99495,425.006],[-9.69865,25.99495,421.6993],[-9.59788,25.99495,419.4109],[-9.49717,25.99495,408.8983],[-9.39645,25.99495,408.9214],[-9.29573,25.99495,402.5615],[-9.19502,25.99495,397.6623],[-9.09425,25.99495,405.4225],[-8.99358,25.99495,402.5899],[-8.89286,25.99495,381.6907],[-8.79204,25.995,380.8767],[-8.70722,25.995,394.4096],[-8.68766,26.00002,390.3406],[-8.68081,26.01314,390.4099],[-8.68081,26.05841,398.5397],[-8.68086,26.07221,398.9181],[-8.68086,26.11112,406.5786],[-8.68094,26.17163,413.9039],[-8.68104,26.25018,428.9322],[-8.68114,26.34299,442.2853],[-8.6813,26.4466,449.9642],[-8.68146,26.55745,430.092],[-8.68156,26.67191,436.6787],[-8.68166,26.78632,413.9056],[-8.68182,26.89717,412.0587],[-8.68192,27.00083,449.6719],[-8.68208,27.0937,455.1828],[-8.68223,27.17214,453.9101],[-8.68223,27.23271,456.0095],[-8.68228,27.27167,449.6618],[-8.68239,27.28542,448.3862],[-8.68239,27.37947,461.1422],[-8.68239,27.47347,464.7024],[-8.68239,27.56741,469.0958],[-8.68239,27.66144,471.9236],[-8.75256,27.66144,472.5796]]]}}