{"type":"Feature","properties":{"GID_1":"ESH.3_1","GID_0":"ESH","country":"WesternSahara","province":"Laayoune","VARNAME_1":"Elaaiún","NL_NAME_1":"NA","TYPE_1":"Willaya","ENGTYPE_1":"Province","CC_1":"NA","HASC_1":"EH.LA","ISO_1":"NA","name":"Laayoune.province"},
"geometry":{"type": "MultiPolygon","coordinates": [[[[-12.363,27.6808,139.0636],[-13.1671,27.6831,0.0],[-13.1674,27.6765,0.8339],[-13.1707,27.6737,0.0],[-13.1851,27.6429,0.1726],[-13.1918,27.634,0.1547],[-13.1979,27.6221,-0.9098],[-13.1976,27.6171,0.8121],[-13.2035,27.6001,0.9669],[-13.2032,27.5904,1.0083],[-13.2049,27.5815,1.2946],[-13.2101,27.5679,0.0],[-13.219,27.554,0.0],[-13.2193,27.546,0.0],[-13.2265,27.5238,0.0],[-13.2299,27.5046,0.5647],[-13.2365,27.4932,0.0],[-13.2585,27.4432,1.0789],[-13.2638,27.4263,0.0],[-13.2705,27.4121,0.0],[-13.2726,27.4024,0.0],[-13.2749,27.399,0.0],[-13.2771,27.3855,0.9632],[-13.281,27.3765,0.6342],[-13.2907,27.3571,0.0],[-13.3015,27.344,0.2643],[-13.3007,27.3368,1.1135],[-13.3026,27.3349,0.0],[-13.3049,27.3237,1.8267],[-13.3232,27.2907,0.0],[-13.3363,27.2721,0.7592],[-13.349,27.2601,0.9477],[-13.3596,27.2451,0.0],[-13.3724,27.224,0.0],[-13.3763,27.2115,1.1008],[-13.3876,27.1965,0.3197],[-13.3879,27.1921,2.9667],[-13.4007,27.1738,5.0952],[-13.4087,27.1651,0.3929],[-13.4096,27.1574,0.0],[-13.4082,27.1529,0.7827],[-13.4157,27.1271,0.0],[-13.4168,27.111,1.9482],[-13.4224,27.0974,0.6097],[-13.4329,27.0968,0.0],[-13.4329,27.0901,0.0],[-13.4318,27.0924,3.1569],[-13.4296,27.0926,0.0],[-13.4296,27.0949,0.0],[-13.4263,27.0932,1.1497],[-13.424,27.096,3.3244],[-13.4199,27.0951,0.5961],[-13.4179,27.0857,0.9358],[-13.4204,27.0776,0.0],[-13.4254,27.0696,0.5809],[-13.4274,27.069,0.0],[-13.4315,27.0588,0.0],[-13.4601,27.0665,1.4557],[-13.4599,27.0632,0.0],[-13.4579,27.0629,0.0],[-13.4576,27.0654,0.0],[-13.4474,27.0624,0.0],[-13.4446,27.0599,0.0],[-13.4432,27.061,0.0],[-13.4321,27.0576,1.1549],[-13.4301,27.0554,0.0],[-13.4404,27.0293,0.0],[-13.461,26.989,0.0],[-13.4646,26.9774,0.3495],[-13.4729,26.961,4.6338],[-13.4785,26.9376,2.0297],[-13.486,26.9246,0.0],[-13.4885,26.9171,0.0],[-13.4885,26.9149,2.5206],[-13.4857,26.9129,7.8712],[-13.486,26.9096,8.1292],[-13.4965,26.8826,3.9839],[-13.4987,26.8732,2.3464],[-13.5165,26.8362,0.0],[-13.5257,26.8213,0.0],[-13.5282,26.8068,5.8773],[-13.5326,26.7968,8.2185],[-13.5418,26.7862,2.8165],[-13.5412,26.7824,5.4943],[-13.5463,26.7771,1.029],[-13.5476,26.7701,11.0196],[-13.5551,26.7615,7.6107],[-13.5649,26.7421,8.7262],[-13.6132,26.6924,0.0],[-13.631,26.6779,11.1131],[-13.6774,26.6457,0.0],[-13.7232,26.6179,13.0816],[-13.7416,26.6096,0.0],[-13.7674,26.5943,5.3423],[-13.7768,26.5921,0.0],[-13.7937,26.5807,5.3414],[-13.8112,26.5735,1.4853],[-13.8268,26.5635,17.941],[-13.8471,26.5563,2.8123],[-13.866,26.541,19.9637],[-13.8946,26.5268,25.2657],[-13.9029,26.5246,3.6838],[-13.9196,26.5154,25.0287],[-13.9243,26.5107,4.0674],[-13.9313,26.5074,0.0],[-13.9388,26.4999,7.8479],[-13.9504,26.4937,3.4388],[-13.9615,26.4824,0.0],[-13.9704,26.4774,0.0],[-13.9721,26.4743,10.2361],[-13.9776,26.4707,2.5513],[-13.9887,26.4674,0.0],[-14.0046,26.4585,35.0075],[-14.0199,26.4524,19.3812],[-14.0285,26.4507,0.4932],[-14.036,26.4465,24.8064],[-14.0807,26.4346,3.3138],[-14.1079,26.429,3.3387],[-14.1418,26.4251,5.2524],[-14.1571,26.4251,2.2047],[-14.174,26.4274,0.0],[-14.1829,26.4246,2.0965],[-14.189,26.4154,3.0338],[-14.1901,26.4079,2.9643],[-14.1921,26.4074,0.0],[-14.1951,26.4026,1.7638],[-14.2054,26.3826,3.738],[-14.2193,26.3687,3.9454],[-14.221,26.3649,3.5927],[-14.231,26.3579,0.0],[-14.2446,26.3376,26.4138],[-14.261,26.326,8.4356],[-14.2463,26.3178,52.0669],[-14.2336,26.303,60.7154],[-14.2116,26.2863,86.7794],[-14.1877,26.2723,87.2513],[-14.1672,26.2555,76.8303],[-14.1442,26.2291,80.5415],[-14.1075,26.2156,81.1657],[-14.0276,26.2068,15.0551],[-13.8573,26.2123,104.3922],[-13.8159,26.2095,107.253],[-13.7847,26.2036,109.4599],[-13.7449,26.191,109.6665],[-13.7154,26.1762,111.1553],[-13.6971,26.1588,112.7888],[-13.6611,26.0709,122.6289],[-13.658,26.0485,124.4223],[-13.66,26.0254,126.0884],[-13.6599,25.9567,130.5543],[-13.6636,25.9345,131.7278],[-13.6765,25.893,132.3265],[-13.692,25.8714,128.9434],[-13.6982,25.8385,128.47],[-13.6948,25.81,128.9767],[-13.6877,25.778,107.2474],[-13.667,25.7187,108.0065],[-13.6445,25.6756,111.9171],[-13.6511,25.6634,130.1903],[-13.6593,25.6397,114.5797],[-13.6458,25.6134,126.1166],[-13.6266,25.5965,126.6532],[-13.6044,25.5718,128.3114],[-13.5881,25.5382,175.9455],[-13.5564,25.5064,183.9815],[-13.5276,25.481,190.0566],[-13.4978,25.4653,162.1088],[-13.4556,25.4385,151.6825],[-13.4287,25.419,158.0529],[-13.3959,25.4052,168.7541],[-13.2949,25.4016,182.0514],[-13.2408,25.3911,202.9134],[-13.1935,25.3846,222.9467],[-13.153,25.3829,239.186],[-13.1254,25.3841,230.8194],[-13.0724,25.3754,248.9057],[-13.0375,25.3721,242.841],[-12.9845,25.3749,231.9462],[-12.9382,25.4225,234.3484],[-12.8912,25.4891,246.2836],[-12.8628,25.5359,252.3172],[-12.8273,25.5731,261.2758],[-12.7891,25.6049,264.2717],[-12.7648,25.629,269.9135],[-12.6925,25.6818,262.1825],[-12.6393,25.715699999999998,273.0633],[-12.5563,25.7747,278.7272],[-12.541,25.8358,308.5554],[-12.5293,25.8679,306.9262],[-12.4969,25.8958,317.5493],[-12.4722,25.9101,308.217],[-12.4431,25.9242,310.8795],[-12.445,25.9996,336.9552],[-12.4587,26.085,304.7917],[-12.477,26.1353,289.5157],[-12.4868,26.1968,276.0697],[-12.5049,26.2568,265.8567],[-12.5271,26.2872,257.9396],[-12.5328,26.3309,247.3808],[-12.5552,26.3806,234.4163],[-12.5685,26.4204,227.1562],[-12.5775,26.4571,218.3465],[-12.5748,26.4968,211.4274],[-12.5689,26.5319,211.2195],[-12.5546,26.5664,211.7122],[-12.541,26.5906,209.4973],[-12.5208,26.6344,214.8827],[-12.505,26.6569,208.1653],[-12.4836,26.6794,164.0536],[-12.4622,26.7052,162.5687],[-12.4392,26.7265,177.1053],[-12.4182,26.7504,151.3683],[-12.3593,26.7982,182.5421],[-12.3191,26.8373,184.5032],[-12.2936,26.8636,107.2013],[-12.2582,26.9062,209.7452],[-12.2246,26.9908,250.2381],[-12.2089,27.0164,264.9215],[-12.2008,27.0406,286.4261],[-12.1901,27.0634,297.7057],[-12.1747,27.083,287.028],[-12.1569,27.1115,286.2238],[-12.1373,27.1506,283.3032],[-12.1273,27.1784,284.198],[-12.1224,27.2034,290.2723],[-12.1064,27.2563,289.3874],[-12.1024,27.2775,284.6296],[-12.0953,27.3016,278.8679],[-12.0923,27.3224,271.0964],[-12.0515,27.4163,247.1699],[-12.0136,27.4714,277.7114],[-11.991,27.499,286.6069],[-11.9765,27.52,304.0329],[-11.9543,27.5453,322.7185],[-11.9398,27.5658,310.3538],[-11.9192,27.5906,315.7644],[-11.8973,27.6099,323.0926],[-11.8426,27.6513,347.125],[-11.7911,27.6791,367.1465],[-12.363,27.6808,139.0636]]]]}}