{"type":"Feature","properties":{"GID_1":"ESH.1_1","GID_0":"ESH","country":"WesternSahara","province":"Boujdour","VARNAME_1":"Bojador","NL_NAME_1":"NA","TYPE_1":"Willaya","ENGTYPE_1":"Province","CC_1":"NA","HASC_1":"EH.BO","ISO_1":"NA","name":"Boujdour.province"},
"geometry":{"type": "MultiPolygon","coordinates": [[[[-12.0039,25.9961,414.0818],[-12.4449,25.9943,329.5886],[-12.4431,25.9242,310.8795],[-12.4722,25.9101,308.217],[-12.4969,25.8958,317.5493],[-12.5293,25.8679,306.9262],[-12.541,25.8358,308.5554],[-12.5563,25.7747,278.7272],[-12.6393,25.715699999999998,273.0633],[-12.6925,25.6818,262.1825],[-12.7648,25.629,269.9135],[-12.7891,25.6049,264.2717],[-12.8273,25.5731,261.2758],[-12.8628,25.5359,252.3172],[-12.8912,25.4891,246.2836],[-12.9382,25.4225,234.3484],[-12.9845,25.3749,231.9462],[-13.0375,25.3721,242.841],[-13.0724,25.3754,248.9057],[-13.1254,25.3841,230.8194],[-13.153,25.3829,239.186],[-13.1935,25.3846,222.9467],[-13.2408,25.3911,202.9134],[-13.2949,25.4016,182.0514],[-13.3959,25.4052,168.7541],[-13.4287,25.419,158.0529],[-13.4556,25.4385,151.6825],[-13.4978,25.4653,162.1088],[-13.5276,25.481,190.0566],[-13.5564,25.5064,183.9815],[-13.5881,25.5382,175.9455],[-13.6044,25.5718,128.3114],[-13.6266,25.5965,126.6532],[-13.6458,25.6134,126.1166],[-13.6593,25.6397,114.5797],[-13.6511,25.6634,130.1903],[-13.6445,25.6756,111.9171],[-13.667,25.7187,108.0065],[-13.6877,25.778,107.2474],[-13.6948,25.81,128.9767],[-13.6982,25.8385,128.47],[-13.692,25.8714,128.9434],[-13.6765,25.893,132.3265],[-13.6636,25.9345,131.7278],[-13.6599,25.9567,130.5543],[-13.66,26.0254,126.0884],[-13.658,26.0485,124.4223],[-13.6611,26.0709,122.6289],[-13.6971,26.1588,112.7888],[-13.7154,26.1762,111.1553],[-13.7449,26.191,109.6665],[-13.7847,26.2036,109.4599],[-13.8159,26.2095,107.253],[-13.8573,26.2123,104.3922],[-14.0276,26.2068,15.0551],[-14.1075,26.2156,81.1657],[-14.1442,26.2291,80.5415],[-14.1672,26.2555,76.8303],[-14.1877,26.2723,87.2513],[-14.2116,26.2863,86.7794],[-14.2336,26.303,60.7154],[-14.2463,26.3178,52.0669],[-14.261,26.3258,8.4356],[-14.2796,26.3113,42.5096],[-14.2818,26.3113,0.0],[-14.2979,26.301,0.0],[-14.3124,26.2882,12.4376],[-14.3126,26.2851,39.2868],[-14.3279,26.2768,5.9069],[-14.364,26.2676,2.107],[-14.396,26.2651,3.0508],[-14.4035,26.2626,0.1006],[-14.4121,26.2504,2.8459],[-14.4137,26.2504,1.5935],[-14.4171,26.246,4.401],[-14.4193,26.246,0.6997],[-14.4224,26.2415,1.9115],[-14.4293,26.2379,0.0],[-14.439,26.224,1.2398],[-14.4429,26.2215,1.7568],[-14.4613,26.1954,2.8239],[-14.4743,26.1807,0.1838],[-14.4779,26.1704,5.6979],[-14.481,26.1663,7.5067],[-14.4829,26.1663,0.0],[-14.4871,26.1537,4.8806],[-14.4968,26.1346,2.7705],[-14.5018,26.1279,0.0],[-14.5001,26.1254,0.0],[-14.501,26.1226,0.0],[-14.4976,26.1221,7.5424],[-14.4896,26.1076,0.0],[-14.486,26.094,0.0],[-14.4876,26.0774,0.0],[-14.4901,26.0693,0.0],[-14.489,26.0618,30.8072],[-14.4899,26.0499,0.0],[-14.4879,26.036,3.6254],[-14.4932,26.0232,3.3895],[-14.4929,26.0146,1.8575],[-14.4951,26.009,2.5271],[-14.496,25.9963,1.6377],[-14.4985,25.9874,0.0],[-14.5035,25.9774,4.1592],[-14.5093,25.971,0.0],[-14.5168,25.9463,1.4361],[-14.5263,25.9368,0.8031],[-14.5299,25.916,2.0661],[-14.5332,25.9124,0.0],[-14.5418,25.8951,1.505],[-14.5593,25.871,2.225],[-14.5674,25.8476,2.7509],[-14.5863,25.826,3.912],[-14.599,25.804,1.5569],[-14.6099,25.7935,3.6447],[-14.6146,25.7857,1.5868],[-14.6257,25.7776,1.1029],[-14.6335,25.7743,0.0],[-14.6374,25.7693,2.3169],[-14.6424,25.741,1.9449],[-14.646,25.7354,0.0],[-14.6518,25.7143,19.51],[-14.6563,25.7082,0.0],[-14.6621,25.6912,8.8174],[-14.6621,25.6818,34.6968],[-14.6651,25.6735,0.0],[-14.6651,25.6651,0.0],[-14.6732,25.6493,0.0],[-14.6757,25.6476,0.0],[-14.6743,25.6454,1.0795],[-14.6754,25.636,0.0],[-14.6801,25.6265,23.5108],[-14.6865,25.6187,0.3917],[-14.6849,25.6129,5.0896],[-14.6871,25.5954,17.3032],[-14.6854,25.5904,0.0],[-14.6857,25.584,0.0],[-14.689,25.5696,40.9101],[-14.6979,25.5446,6.5575],[-14.7071,25.5313,6.288],[-14.721,25.5026,0.0],[-14.7288,25.4951,0.0],[-14.7351,25.4832,0.0],[-14.7499,25.4704,3.2626],[-14.7576,25.4604,12.2509],[-14.7615,25.4582,0.0],[-14.7668,25.449,5.8803],[-14.776,25.4382,0.0],[-14.7774,25.4301,40.7752],[-14.7874,25.419,7.6118],[-14.7901,25.4124,0.0],[-14.7949,25.3957,0.0],[-14.7929,25.3754,11.8589],[-14.8046,25.3496,0.0],[-14.8104,25.340699999999998,5.8479],[-14.8146,25.3376,13.5786],[-14.8126,25.3221,24.8053],[-14.8235,25.3043,0.0],[-14.8246,25.3001,9.2021],[-14.8287,25.2957,1.7382],[-14.829,25.2787,5.6016],[-14.8276,25.2779,5.6016],[-14.8248,25.2649,7.0704],[-14.826,25.2529,5.0697],[-14.829,25.2432,32.1781],[-14.8332,25.2385,0.0],[-14.8387,25.2213,20.1063],[-14.8432,25.2149,0.0],[-14.846,25.2046,0.0],[-14.8449,25.1915,0.0],[-14.8429,25.1887,0.0],[-14.8371,25.1621,20.8277],[-14.8379,25.151,10.4722],[-14.8396,25.1479,0.0],[-14.8396,25.1374,0.0],[-14.846,25.1268,0.0],[-14.841,25.1176,1.8194],[-14.8401,25.1076,0.0],[-14.8382,25.1054,2.5451],[-14.8374,25.1004,1.7003],[-14.8421,25.0885,0.0],[-14.8415,25.0818,0.0],[-14.829,25.0743,30.7496],[-14.8254,25.0635,0.0],[-14.8207,25.0571,20.8701],[-14.8193,25.0496,0.0],[-14.8193,25.0393,0.0],[-14.8232,25.0213,0.0],[-14.8221,25.0126,50.7276],[-14.8237,25.0071,0.0],[-14.8229,24.996,88.7026],[-14.8237,24.989,0.0],[-14.826,24.9849,0.0],[-14.8246,24.9754,22.6137],[-14.8265,24.9671,11.0448],[-14.8301,24.9638,0.0],[-14.8321,24.9574,0.0],[-14.8321,24.9446,4.85],[-14.8337,24.9435,0.0],[-14.8304,24.9301,35.9722],[-14.8307,24.9118,20.5197],[-14.8285,24.9082,49.8759],[-14.8307,24.9071,0.0],[-14.8329,24.8957,6.5087],[-14.8374,24.8888,0.0],[-14.8368,24.8865,24.6903],[-14.8387,24.884,8.0846],[-14.8387,24.8799,48.777],[-14.841,24.8776,0.2197],[-14.841,24.8735,16.4268],[-14.8474,24.8649,14.7471],[-14.8521,24.844,0.0],[-14.859,24.8349,0.0],[-14.8593,24.8288,0.0],[-14.8716,24.8082,15.8764],[-14.8751,24.7951,0.0],[-14.8743,24.789,31.2729],[-14.8826,24.7687,24.822],[-14.8824,24.759,26.9866],[-14.8857,24.7521,0.0],[-14.8857,24.7449,2.712],[-14.8879,24.741,0.6924],[-14.8843,24.7346,17.549],[-14.8851,24.7243,0.0],[-14.8818,24.7193,22.6181],[-14.884,24.7188,0.0],[-14.8837,24.7151,19.4808],[-14.8849,24.7149,0.0],[-14.8826,24.7138,26.5176],[-14.8818,24.7104,7.1226],[-14.8837,24.7065,0.0],[-14.8826,24.7018,15.4224],[-14.8938,24.6904,1.7409],[-14.9074,24.6829,0.0],[-14.924,24.6674,0.0],[-14.9454,24.651,10.4726],[-14.959,24.6446,0.0],[-14.9626,24.6446,0.0],[-14.9685,24.6407,0.0],[-14.9735,24.6399,0.0],[-14.9835,24.6321,0.0],[-14.9857,24.6321,0.0],[-14.9879,24.6282,0.0],[-14.989,24.6087,46.0905],[-14.9915,24.604,0.0],[-14.9918,24.5985,0.0],[-14.9943,24.5932,7.5029],[-15.0004,24.5872,0.0],[-14.9191,24.5756,102.0465],[-14.8251,24.5389,89.2458],[-14.7832,24.5254,118.5646],[-14.7517,24.5063,142.7272],[-14.7321,24.4818,132.3527],[-14.7121,24.4508,133.33],[-14.6926,24.4281,129.8101],[-14.6613,24.4118,138.4444],[-14.6295,24.4052,150.9845],[-14.6024,24.4099,174.7428],[-14.5494,24.4152,183.5652],[-14.5017,24.4243,192.3369],[-14.3406,24.4652,213.4668],[-14.2907,24.4735,216.6058],[-14.2353,24.48,222.2582],[-14.1739,24.479,223.9494],[-14.0757,24.4842,242.1373],[-13.9928,24.4704,266.7655],[-13.8118,24.4285,300.6748],[-13.7355,24.4001,306.9805],[-13.6894,24.3901,309.7922],[-13.513,24.4341,331.2233],[-13.4358,24.4667,316.7055],[-13.3702,24.4866,324.0011],[-13.2947,24.5126,311.0784],[-13.1198,24.5271,265.2134],[-13.0524,24.516,261.396],[-12.8877,24.4815,204.73],[-12.824,24.4739,203.3439],[-12.6076,24.4059,232.3702],[-12.5195,24.4055,226.956],[-12.4418,24.4169,253.8871],[-12.3623,24.4328,251.3232],[-12.2843,24.4515,255.0619],[-12.1925,24.4491,245.8423],[-12.1186,24.4515,245.8368],[-12.0655,24.4396,243.1231],[-12.0039,24.4519,274.4362],[-12.003,24.5133,247.2144],[-12.0063,24.7866,293.4938],[-12.0034,25.7292,412.8792],[-12.005,25.8631,391.3042],[-12.0039,25.9961,414.0818]]]]}}