{"type": "Feature","bbox": [-17.1054,20.7696,-12.0,24.5872],"geometry": {"type": "MultiPolygon","coordinates": [[[[-16.8354,22.1562,0.0],[-16.8374,22.156,0.0],[-16.8379,22.1521,0.0],[-16.8351,22.1521,0.0],[-16.8362,22.1529,0.0],[-16.8354,22.1562,0.0]]],
[[[-16.7774,22.2035,7.9262],[-16.7763,22.2057,0.0],[-16.7815,22.2043,0.0],[-16.7826,22.2007,0.0],[-16.7785,22.2018,0.0],[-16.7774,22.2035,7.9262]]],
[[[-16.761,22.2249,0.51],[-16.7643,22.224,0.0],[-16.7637,22.2204,0.0],[-16.7612,22.2232,4.8148],[-16.761,22.2249,0.51]]],
[[[-13.0248,21.5213,250.8624],[-13.0245,21.542,256.6377],[-13.0315,21.5928,268.0139],[-13.042,21.7026,262.8262],[-13.045,21.7096,262.4278],[-13.0444,21.7298,273.1101],[-13.053,21.8145,294.0912],[-13.0555,21.8201,290.4377],[-13.0548,21.84,290.2822],[-13.0565,21.8539,290.2946],[-13.0591,21.8601,283.6794],[-13.0583,21.8738,281.3219],[-13.0635,21.9291,298.7241],[-13.0802,22.0908,337.3479],[-13.084,22.115,394.89],[-13.0921,22.2094,324.1273],[-13.1062,22.3357,323.0851],[-13.1285,22.5576,298.1181],[-13.1341,22.6278,303.7822],[-13.138,22.6485,309.6067],[-13.1457,22.7314,292.9969],[-13.1447,22.7521,301.0842],[-13.1383,22.7863,304.2345],[-13.0852,22.9945,312.0668],[-13.0589,23.0585,321.3315],[-13.0456,23.0832,316.0072],[-13.0186,23.127,305.9201],[-12.9571,23.2131,288.4714],[-12.8988,23.2825,290.7885],[-12.892,23.2861,289.4975],[-12.8504,23.3289,290.7862],[-12.8249,23.3496,299.837],[-12.8071,23.3617,294.0196],[-12.7756,23.3794,289.5261],[-12.7738,23.3776,288.6501],[-12.7678,23.3836,282.3674],[-12.7598,23.3876,278.2821],[-12.7404,23.3913,268.1967],[-12.4687,23.4148,289.0764],[-12.3704,23.4215,297.0707],[-12.3097,23.428,313.8321],[-12.2017,23.4346,323.7964],[-12.1245,23.4441,330.7092],[-12.0761,23.4443,330.1137],[-12.0379,23.4477,328.0208],[-12.0,23.4545,322.5746],[-12.0,24.0,244.6207],[-12.0039,24.1052,230.7104],[-12.003,24.2394,207.4127],[-12.0049,24.3786,220.6133],[-12.0039,24.4519,274.4362],[-12.0655,24.4396,243.1231],[-12.1186,24.4515,245.8368],[-12.1925,24.4491,245.8423],[-12.2843,24.4515,255.0619],[-12.3623,24.4328,251.3232],[-12.4418,24.4169,253.8871],[-12.5195,24.4055,226.956],[-12.6076,24.4059,232.3702],[-12.824,24.4739,203.3439],[-12.8877,24.4815,204.73],[-13.0524,24.516,261.396],[-13.1198,24.5271,265.2134],[-13.2947,24.5126,311.0784],[-13.3702,24.4866,324.0011],[-13.4358,24.4667,316.7055],[-13.513,24.4341,331.2233],[-13.6894,24.3901,309.7922],[-13.7355,24.4001,306.9805],[-13.8118,24.4285,300.6748],[-13.9928,24.4704,266.7655],[-14.0757,24.4842,242.1373],[-14.1739,24.479,223.9494],[-14.2353,24.48,222.2582],[-14.2907,24.4735,216.6058],[-14.3406,24.4652,213.4668],[-14.5017,24.4243,192.3369],[-14.5494,24.4152,183.5652],[-14.6024,24.4099,174.7428],[-14.6295,24.4052,150.9845],[-14.6613,24.4118,138.4444],[-14.6926,24.4281,129.8101],[-14.7121,24.4508,133.33],[-14.7321,24.4818,132.3527],[-14.7517,24.5063,142.7272],[-14.7832,24.5254,118.5646],[-14.8251,24.5389,89.2458],[-14.9191,24.5756,102.0465],[-15.0004,24.5872,0.0],[-15.0026,24.5815,0.0],[-15.0012,24.5743,0.0],[-15.0024,24.5693,0.0],[-15.0054,24.566,6.7667],[-15.0065,24.5613,0.0],[-15.0104,24.5574,0.0],[-15.0132,24.5568,0.0],[-15.0193,24.5501,0.0],[-15.0212,24.5507,0.0],[-15.0221,24.5485,1.403],[-15.0237,24.549,0.0],[-15.0354,24.5415,0.0],[-15.0385,24.5415,0.0],[-15.0387,24.5399,0.0],[-15.0437,24.539,0.0],[-15.0482,24.5357,0.0],[-15.0518,24.5357,0.0],[-15.0554,24.5321,0.0],[-15.069,24.5296,0.0],[-15.0688,24.528199999999998,0.0],[-15.0718,24.5287,0.0],[-15.0835,24.5235,1.8645],[-15.0862,24.5243,0.0],[-15.0871,24.5226,0.0],[-15.0976,24.5201,0.0],[-15.1054,24.5157,0.0],[-15.1135,24.5146,0.0],[-15.1163,24.5115,2.2031],[-15.1243,24.5113,0.0],[-15.1243,24.5099,0.0],[-15.1282,24.5079,1.5618],[-15.1443,24.5021,0.0],[-15.1501,24.4988,0.0],[-15.1551,24.4935,22.6257],[-15.1671,24.4888,0.0],[-15.1857,24.4662,2.0843],[-15.1974,24.4593,6.4635],[-15.2051,24.4526,1.5798],[-15.2076,24.4479,38.8301],[-15.2132,24.446,0.0],[-15.2215,24.4401,5.3913],[-15.2279,24.4301,7.3541],[-15.2393,24.4204,0.0],[-15.256,24.401,0.0],[-15.2643,24.3874,0.0],[-15.2646,24.384,4.5408],[-15.2718,24.376,0.0],[-15.2779,24.3657,1.8696],[-15.2882,24.3551,0.0],[-15.296,24.3432,30.2422],[-15.3132,24.3268,10.6988],[-15.3201,24.3154,42.6526],[-15.3326,24.3018,24.5962],[-15.3418,24.2962,0.0],[-15.3626,24.2763,8.8132],[-15.3687,24.2713,2.9695],[-15.371,24.2715,0.0],[-15.3715,24.269,17.2425],[-15.3801,24.2657,0.0],[-15.3893,24.2596,6.9848],[-15.3937,24.2588,0.0],[-15.4082,24.2482,3.4996],[-15.4093,24.2457,23.9877],[-15.4176,24.241,4.5249],[-15.4254,24.2335,13.9597],[-15.4271,24.2299,34.063],[-15.4468,24.2149,0.0],[-15.4654,24.1946,0.0],[-15.4762,24.186,0.0],[-15.4851,24.1746,3.322],[-15.4865,24.1707,3.9151],[-15.4949,24.1646,0.0],[-15.5035,24.1546,13.5192],[-15.5074,24.154,0.0],[-15.5118,24.1496,10.6126],[-15.5207,24.1449,0.0],[-15.5224,24.1426,6.0997],[-15.5215,24.1371,0.0],[-15.5226,24.1346,2.3446],[-15.5349,24.119,4.0944],[-15.544,24.1132,1.2296],[-15.5551,24.1026,8.2652],[-15.5587,24.1024,0.0],[-15.5615,24.0987,34.9167],[-15.5662,24.0985,0.0],[-15.5735,24.0943,6.9748],[-15.5782,24.0885,0.0],[-15.5843,24.0757,16.1324],[-15.5835,24.074,14.5088],[-15.5787,24.0735,0.0],[-15.5768,24.0654,0.0],[-15.581,24.0579,6.724],[-15.5929,24.044,0.0],[-15.5962,24.0432,0.0],[-15.5996,24.039,0.0],[-15.6088,24.036,0.0],[-15.6176,24.0279,0.0],[-15.6207,24.0274,0.0],[-15.6235,24.0224,0.0],[-15.6271,24.0218,0.0],[-15.6307,24.0179,8.1879],[-15.6449,24.0115,0.0],[-15.6543,24.0049,18.2152],[-15.6565,24.0051,0.0],[-15.6615,23.999,0.0],[-15.6801,23.9899,15.4554],[-15.6838,23.9896,0.0],[-15.6868,23.9865,2.904],[-15.6971,23.9835,0.0],[-15.6979,23.9818,0.772],[-15.7012,23.9818,0.0],[-15.7024,23.9799,0.0],[-15.7237,23.9707,0.0],[-15.7338,23.964,3.3797],[-15.741,23.9618,0.0],[-15.7585,23.951,16.6669],[-15.7638,23.9494,0.0],[-15.7699,23.9424,0.0],[-15.7765,23.9387,0.0],[-15.7785,23.9357,0.0],[-15.7818,23.936,0.0],[-15.7826,23.9335,0.72],[-15.7896,23.9299,0.0],[-15.7924,23.9265,2.0754],[-15.796,23.9265,0.4942],[-15.8049,23.9226,0.0],[-15.8032,23.9179,1.3255],[-15.806,23.9165,0.0],[-15.8076,23.9124,0.0],[-15.8212,23.901,2.1491],[-15.8332,23.8957,0.0],[-15.8413,23.8888,0.0],[-15.8782,23.8435,11.3388],[-15.8835,23.8401,5.8218],[-15.9046,23.8188,0.0],[-15.9168,23.7976,2.3829],[-15.9182,23.7865,5.8841],[-15.9196,23.786,5.8841],[-15.9235,23.7774,2.8647],[-15.9238,23.7726,4.3417],[-15.9257,23.7707,2.2282],[-15.9257,23.7671,3.7372],[-15.9215,23.7643,3.9027],[-15.9238,23.7576,5.1158],[-15.9337,23.7426,4.6699],[-15.9446,23.7335,2.8628],[-15.9565,23.7271,0.0],[-15.9596,23.7196,0.0],[-15.9576,23.7076,1.9893],[-15.9593,23.7015,5.4478],[-15.9679,23.6907,3.8702],[-15.9846,23.6801,1.3615],[-15.9887,23.669,6.3155],[-16.006,23.6496,4.0927],[-16.0076,23.6451,0.0],[-16.0071,23.6418,0.0],[-16.0018,23.6335,1.0683],[-15.9965,23.6307,0.0],[-15.9929,23.6324,0.7113],[-15.9887,23.6318,0.8913],[-15.9846,23.6265,0.0],[-15.9812,23.6301,0.0],[-15.9821,23.6371,0.5554],[-15.9804,23.6407,0.1954],[-15.9757,23.6446,0.0],[-15.9707,23.6537,0.0],[-15.9671,23.6565,0.0],[-15.9671,23.6618,0.0],[-15.9649,23.666,5.4411],[-15.9587,23.6707,5.7222],[-15.9479,23.6621,0.0],[-15.9496,23.6601,0.0],[-15.9462,23.6596,1.2301],[-15.9479,23.6585,0.4014],[-15.9468,23.6557,0.3855],[-15.9435,23.6574,0.0],[-15.9437,23.6599,0.5222],[-15.9568,23.671,5.7222],[-15.9563,23.6732,4.8096],[-15.939,23.6829,3.5262],[-15.9379,23.6857,6.9242],[-15.9354,23.6868,0.0],[-15.9351,23.6918,0.7709],[-15.9307,23.6974,8.9244],[-15.926,23.7001,0.8121],[-15.9235,23.6993,0.0],[-15.9246,23.7015,2.8846],[-15.9238,23.7065,0.0],[-15.9168,23.7151,0.0],[-15.9165,23.7254,2.0726],[-15.9135,23.7351,0.0],[-15.9087,23.7412,0.0],[-15.9074,23.7615,4.8857],[-15.9054,23.764,2.8814],[-15.9062,23.7674,3.7044],[-15.9004,23.7701,0.0],[-15.9015,23.7751,7.1779],[-15.8988,23.7787,0.0],[-15.8988,23.7846,0.0],[-15.8957,23.7899,3.5338],[-15.896,23.7938,7.1548],[-15.8896,23.8026,4.9643],[-15.8849,23.8054,4.5157],[-15.884,23.8115,0.0],[-15.8812,23.8132,1.1382],[-15.8787,23.8215,5.9132],[-15.8726,23.829,4.7516],[-15.8637,23.8307,0.0],[-15.8571,23.8454,0.0],[-15.8501,23.8551,7.1665],[-15.8474,23.8551,0.0],[-15.8474,23.8579,0.0],[-15.836,23.8637,0.0],[-15.8368,23.8596,0.0],[-15.8346,23.8551,0.0],[-15.8301,23.8568,0.0],[-15.8287,23.856,0.0],[-15.8221,23.8621,0.0],[-15.8215,23.8646,0.0],[-15.8101,23.8668,0.084],[-15.8018,23.8726,0.0812],[-15.7946,23.8865,0.0],[-15.7943,23.8924,0.9188],[-15.7904,23.8968,0.0],[-15.7904,23.8996,0.8918],[-15.7843,23.9007,2.2149],[-15.7851,23.9051,1.5802],[-15.7824,23.9074,7.5501],[-15.7829,23.9118,3.0518],[-15.7804,23.9138,13.0235],[-15.7754,23.914,1.0472],[-15.7676,23.9215,1.5015],[-15.7651,23.9215,1.5728],[-15.7635,23.9196,1.1996],[-15.764,23.9121,1.3899],[-15.7704,23.904,0.0],[-15.7721,23.8996,0.0],[-15.7718,23.8929,0.0],[-15.7679,23.8954,1.0084],[-15.7651,23.9051,3.318],[-15.7635,23.9065,8.5167],[-15.7613,23.9051,1.2252],[-15.7629,23.8988,2.81],[-15.7604,23.899,1.5573],[-15.7596,23.904,7.0682],[-15.7568,23.906,1.7949],[-15.7537,23.9185,3.2954],[-15.7482,23.9188,6.2529],[-15.7462,23.9238,2.2125],[-15.7471,23.9287,17.4979],[-15.7515,23.9354,14.606],[-15.7515,23.9404,3.5337],[-15.7496,23.9421,5.2205],[-15.749,23.9474,7.4215],[-15.7418,23.9479,6.8225],[-15.7385,23.9501,2.764],[-15.7326,23.951,5.5022],[-15.7224,23.9601,1.9161],[-15.7149,23.9729,1.3936],[-15.7049,23.9779,0.0],[-15.6974,23.9796,3.6333],[-15.7007,23.9674,1.0837],[-15.7049,23.9604,2.946],[-15.7074,23.9507,18.2435],[-15.7115,23.9454,9.703],[-15.7204,23.9188,1.1429],[-15.7171,23.9126,2.8209],[-15.7126,23.9085,2.2247],[-15.7129,23.8979,1.351],[-15.7101,23.8924,2.8865],[-15.7182,23.8871,0.0],[-15.7207,23.8804,7.3797],[-15.724,23.8774,9.6792],[-15.7218,23.8721,12.7092],[-15.736,23.8554,1.4346],[-15.7368,23.8501,0.0],[-15.7424,23.8382,7.4685],[-15.7424,23.831,3.5534],[-15.7462,23.8251,0.1439],[-15.7449,23.8174,0.0],[-15.7462,23.8096,0.0733],[-15.7443,23.809,0.0],[-15.7343,23.8171,0.0],[-15.7271,23.819,0.0],[-15.7237,23.8224,0.0],[-15.7224,23.8265,0.4777],[-15.7179,23.8293,0.0],[-15.7143,23.8274,0.0],[-15.7135,23.8226,0.2694],[-15.7146,23.8204,0.0],[-15.7176,23.816,2.965],[-15.7282,23.8132,0.4156],[-15.7349,23.8079,0.0],[-15.739,23.8001,0.0],[-15.7418,23.7857,0.9676],[-15.7468,23.7774,3.5646],[-15.754,23.7721,0.0],[-15.7638,23.7615,6.0727],[-15.771,23.7588,0.0],[-15.7729,23.7554,25.7596],[-15.7812,23.7512,0.0],[-15.7826,23.7451,5.6137],[-15.7954,23.7296,0.97],[-15.8021,23.7096,24.1818],[-15.8071,23.7068,0.0],[-15.8079,23.7018,20.5186],[-15.8146,23.6921,3.3779],[-15.8218,23.6882,5.815],[-15.8221,23.6838,16.4756],[-15.826,23.6818,1.6543],[-15.8287,23.6754,40.2018],[-15.834,23.6738,0.0],[-15.8329,23.6699,18.1523],[-15.8368,23.6688,0.0],[-15.8396,23.6657,0.0],[-15.8424,23.6607,0.0],[-15.8421,23.6551,1.7659],[-15.8474,23.651,1.625],[-15.8482,23.6454,14.3598],[-15.851,23.6449,0.0],[-15.8515,23.6426,6.4575],[-15.8565,23.6401,4.6517],[-15.8568,23.6363,4.1389],[-15.8599,23.6324,0.9179],[-15.8651,23.629,5.6309],[-15.8757,23.6274,1.1774],[-15.8776,23.6224,0.0],[-15.8763,23.6171,7.1021],[-15.8776,23.6168,0.0],[-15.8779,23.6146,9.7185],[-15.8799,23.6149,6.5322],[-15.8818,23.6129,8.8812],[-15.8915,23.5932,7.96],[-15.8946,23.5918,0.0],[-15.896,23.5871,0.0],[-15.9012,23.5812,28.766],[-15.9004,23.5749,21.3323],[-15.9065,23.5646,9.3146],[-15.9154,23.561,3.249],[-15.9221,23.556,3.5291],[-15.926,23.5471,2.2877],[-15.9326,23.5393,0.9514],[-15.9376,23.5365,0.0],[-15.941,23.5271,5.2583],[-15.9599,23.5215,0.0],[-15.9754,23.509,0.0],[-15.9763,23.504,2.0052],[-15.9751,23.5026,3.1554],[-15.9704,23.5029,6.3068],[-15.9649,23.4996,14.7248],[-15.9662,23.4901,0.0],[-15.9568,23.4854,0.0],[-15.9526,23.4801,12.2808],[-15.9518,23.4735,8.29],[-15.9579,23.4571,0.0],[-15.9674,23.4468,0.0],[-15.9707,23.439,33.6884],[-15.9735,23.4365,0.0],[-15.974,23.4318,0.0],[-15.9793,23.4238,9.2883],[-15.981,23.4135,10.5279],[-15.9879,23.4068,5.0237],[-15.9887,23.4029,32.7146],[-15.9951,23.396,9.234],[-15.9976,23.3893,42.0885],[-16.0093,23.3771,0.0],[-16.0271,23.3624,0.0],[-16.0465,23.3426,5.7816],[-16.0668,23.329,0.0],[-16.0621,23.3229,0.0],[-16.0596,23.3149,40.0371],[-16.0601,23.311,0.0],[-16.0654,23.299,6.02],[-16.0743,23.2912,0.0],[-16.086,23.2682,11.4854],[-16.0969,23.2549,0.0],[-16.0985,23.2501,8.819],[-16.1157,23.2329,0.0],[-16.1182,23.226,0.4223],[-16.1165,23.2193,2.3611],[-16.1182,23.2151,0.0],[-16.1154,23.2143,0.0],[-16.114,23.209,0.7465],[-16.1221,23.1971,0.0],[-16.124,23.1896,3.5049],[-16.1312,23.1799,8.0309],[-16.136,23.1782,0.0],[-16.1437,23.1718,0.0],[-16.1451,23.1663,1.5477],[-16.1485,23.1651,0.0],[-16.1517,23.1598,0.0],[-16.1551,23.1588,0.0],[-16.156,23.153199999999998,3.7011],[-16.1629,23.1474,0.0],[-16.1638,23.1432,0.6043],[-16.1668,23.1426,0.0],[-16.1701,23.1379,0.0],[-16.1793,23.1351,0.0],[-16.1801,23.1321,0.0],[-16.1843,23.1301,0.0],[-16.186,23.1274,0.0],[-16.1893,23.1276,0.0],[-16.1943,23.1138,0.0],[-16.1993,23.1074,0.0],[-16.2065,23.0912,0.0],[-16.2062,23.0863,0.0],[-16.2107,23.0807,0.0],[-16.2104,23.0774,0.0],[-16.206,23.0788,0.335],[-16.1999,23.0879,1.0496],[-16.1899,23.0912,0.3729],[-16.1815,23.091,0.3553],[-16.1712,23.0863,0.0],[-16.1624,23.0793,1.2348],[-16.1554,23.0713,1.5619],[-16.1479,23.0588,1.5408],[-16.1415,23.0338,1.042],[-16.1421,23.0129,0.0],[-16.1468,22.9949,0.2568],[-16.1574,22.9746,0.0],[-16.1729,22.9551,0.0],[-16.1943,22.9329,0.0],[-16.199,22.9307,0.0],[-16.2143,22.9182,3.2169],[-16.2374,22.9082,0.5075],[-16.2418,22.9079,0.0],[-16.2457,22.9051,3.2761],[-16.2546,22.9035,0.9822],[-16.2735,22.8963,0.3726],[-16.2799,22.8968,11.5604],[-16.2846,22.9068,1.7323],[-16.2868,22.9071,0.0],[-16.2887,22.9051,0.0],[-16.2871,22.9029,2.6258],[-16.2882,22.8949,0.0156],[-16.2924,22.8851,0.0],[-16.2918,22.8832,3.0703],[-16.2935,22.8829,0.1031],[-16.2946,22.8785,0.9841],[-16.301,22.8693,0.0],[-16.3032,22.8626,0.8474],[-16.3021,22.8551,3.2185],[-16.3043,22.8529,0.4346],[-16.2968,22.849,0.9437],[-16.2951,22.8518,0.0],[-16.2901,22.8493,10.4024],[-16.2879,22.8446,16.2049],[-16.2879,22.8349,17.1201],[-16.2907,22.8268,2.342],[-16.2962,22.8182,10.878],[-16.3057,22.8057,0.0],[-16.3129,22.8004,0.0],[-16.319,22.7843,1.7992],[-16.3235,22.7787,1.4986],[-16.3304,22.7746,0.9396],[-16.3282,22.7651,5.2111],[-16.3304,22.7621,1.4186],[-16.3337,22.7635,0.0],[-16.3335,22.7607,0.0],[-16.3365,22.7571,0.0],[-16.3354,22.7535,0.4009],[-16.3371,22.7435,2.4234],[-16.3385,22.7426,2.6251],[-16.3396,22.734,0.0],[-16.3437,22.7246,0.0],[-16.3432,22.706,0.6593],[-16.3399,22.6854,0.5071],[-16.346,22.6651,0.1224],[-16.3463,22.6582,0.4883],[-16.3429,22.6546,2.1039],[-16.344,22.6513,0.9894],[-16.3426,22.649,1.7039],[-16.3501,22.6371,0.0],[-16.3551,22.6251,1.5589],[-16.3546,22.6224,0.0],[-16.3593,22.6038,0.0],[-16.3582,22.599,0.0],[-16.3587,22.5938,0.0],[-16.3604,22.5918,0.0],[-16.3599,22.5785,5.9901],[-16.3704,22.5637,0.0],[-16.3815,22.5526,0.0],[-16.384,22.5521,0.0],[-16.3865,22.5482,17.2605],[-16.3913,22.5457,0.0],[-16.3874,22.5501,0.0],[-16.3926,22.5468,0.0],[-16.3943,22.5435,3.3798],[-16.3982,22.5429,0.0],[-16.4007,22.5393,0.0],[-16.4093,22.5332,17.0006],[-16.4279,22.5232,2.4344],[-16.4287,22.5185,0.5827],[-16.431,22.5179,0.0],[-16.4404,22.5015,0.0],[-16.4418,22.4896,0.3931],[-16.4407,22.4896,0.3931],[-16.4415,22.486,0.1799],[-16.4399,22.4857,1.8289],[-16.4396,22.4826,1.5017],[-16.4424,22.4757,0.3207],[-16.446,22.4721,0.0],[-16.4512,22.4607,0.2673],[-16.4524,22.461,0.2673],[-16.4502,22.4524,1.9395],[-16.4501,22.4435,3.1703],[-16.4518,22.4401,1.458],[-16.4518,22.4338,2.9073],[-16.4551,22.429,0.0],[-16.4557,22.4188,1.6129],[-16.4582,22.4165,0.1574],[-16.4582,22.4107,3.6613],[-16.4615,22.4082,0.0509],[-16.4604,22.4076,4.3938],[-16.4621,22.4046,1.2877],[-16.4599,22.3924,1.2849],[-16.4665,22.3854,0.7853],[-16.4685,22.3779,3.5316],[-16.4776,22.3624,0.0],[-16.4907,22.3507,0.0],[-16.4954,22.3493,0.4264],[-16.4932,22.3437,11.0426],[-16.4965,22.3335,0.0],[-16.4949,22.3243,1.2542],[-16.5218,22.3043,2.5306],[-16.5474,22.2912,0.0],[-16.5604,22.2856,0.0],[-16.6079,22.2715,0.0],[-16.6301,22.2685,1.9925],[-16.6362,22.269,0.0],[-16.641,22.2776,0.0],[-16.6462,22.2804,12.3994],[-16.6479,22.2871,0.0],[-16.6507,22.2885,16.2183],[-16.6529,22.294,0.0],[-16.6579,22.2957,0.0],[-16.6707,22.2935,0.985],[-16.6712,22.2965,0.0],[-16.6815,22.2957,0.0],[-16.7001,22.2813,0.0],[-16.7024,22.2768,1.7493],[-16.7076,22.2724,4.8049],[-16.7082,22.2665,0.0],[-16.7168,22.2574,0.0],[-16.7171,22.2552,1.9941],[-16.7257,22.2499,6.5078],[-16.7365,22.2388,2.4017],[-16.7574,22.2265,0.0],[-16.7585,22.2226,9.1836],[-16.7612,22.2218,8.3347],[-16.7621,22.2176,11.7719],[-16.7637,22.2188,0.0],[-16.7668,22.2165,6.822],[-16.7676,22.219,0.0],[-16.769,22.2171,0.0],[-16.7687,22.2121,10.3708],[-16.7721,22.2096,0.0],[-16.7757,22.2021,6.0391],[-16.7751,22.1976,1.8205],[-16.7724,22.199,2.6723],[-16.7726,22.1943,0.0],[-16.7699,22.1946,1.1917],[-16.7696,22.1826,0.0],[-16.7749,22.1757,3.3511],[-16.7821,22.1701,6.7758],[-16.8001,22.1629,5.5159],[-16.8051,22.1638,0.0],[-16.8068,22.1626,0.0],[-16.8124,22.1513,5.2226],[-16.8174,22.1307,1.3805],[-16.8237,22.1207,0.0],[-16.824,22.1132,0.7755],[-16.8301,22.1043,1.977],[-16.8346,22.0901,10.4532],[-16.8371,22.0882,7.7394],[-16.8412,22.0696,5.4846],[-16.8487,22.0526,0.0],[-16.8499,22.0454,0.0],[-16.8593,22.0315,1.084],[-16.8671,22.0107,0.0],[-16.8693,22.0082,0.0],[-16.8715,21.9999,1.2565],[-16.8721,21.9885,5.799],[-16.879,21.9813,-0.0627],[-16.8801,21.9699,1.8003],[-16.8876,21.9551,3.9013],[-16.8901,21.9538,1.1356],[-16.8974,21.9418,0.0034],[-16.8996,21.9299,0.6055],[-16.894,21.9271,2.7449],[-16.8937,21.9204,1.3081],[-16.9007,21.899,3.5929],[-16.9085,21.8876,1.225],[-16.9107,21.8813,0.6397],[-16.9132,21.881,0.2351],[-16.9126,21.879,1.5713],[-16.9168,21.8735,4.3609],[-16.9204,21.8715,0.0],[-16.934,21.8549,6.3426],[-16.9363,21.8557,0.0],[-16.9496,21.8415,2.1544],[-16.9518,21.841,0.0],[-16.9515,21.8388,0.4816],[-16.956,21.8296,1.5994],[-16.959,21.8274,0.0],[-16.9574,21.8257,0.9339],[-16.9571,21.821,0.0],[-16.9615,21.8124,0.0],[-16.9607,21.8051,9.5555],[-16.9671,21.7965,5.6767],[-16.9649,21.7865,3.5635],[-16.9654,21.7729,0.0],[-16.9624,21.7715,2.2494],[-16.961,21.7687,0.0],[-16.9596,21.7687,0.0],[-16.959,21.7724,2.7494],[-16.951,21.7693,1.4838],[-16.9507,21.7599,1.4023],[-16.9593,21.7426,3.5123],[-16.9662,21.7368,0.0],[-16.9657,21.7335,5.7294],[-16.9701,21.7287,6.3846],[-16.9768,21.7263,0.2392],[-16.9779,21.7229,2.5807],[-16.9821,21.7188,0.0],[-16.9829,21.7071,1.4348],[-16.9815,21.6887,0.9335],[-16.9782,21.6782,4.8741],[-16.9796,21.6726,0.0],[-16.9768,21.6693,7.3927],[-16.9774,21.6665,2.6895],[-16.9754,21.666,2.6895],[-16.974,21.661,1.969],[-16.9754,21.6596,0.0],[-16.9746,21.6454,4.8371],[-16.9768,21.6393,1.5572],[-16.9757,21.6346,0.5892],[-16.9832,21.6201,1.252],[-16.9832,21.6149,9.167],[-16.9854,21.609,3.7495],[-16.9857,21.6018,0.0],[-16.9837,21.5976,0.0],[-16.9851,21.590699999999998,3.5107],[-16.9815,21.5888,6.6429],[-16.9804,21.5863,0.0],[-16.9829,21.564,0.0],[-16.9821,21.5599,0.0],[-16.9862,21.5524,0.0],[-16.9879,21.546,0.0],[-16.9871,21.5424,8.0043],[-16.9907,21.5351,0.0],[-16.9912,21.5268,4.2737],[-16.9929,21.5263,0.3338],[-16.9935,21.5163,1.0698],[-16.9921,21.5101,1.1331],[-16.994,21.5054,0.0],[-16.9932,21.4982,3.2025],[-16.9962,21.4915,0.0],[-16.9954,21.4885,4.748],[-16.9979,21.4857,4.1955],[-16.9976,21.4829,16.2348],[-16.9993,21.4824,0.0],[-16.9995,21.4762,4.0185],[-17.004,21.465699999999998,4.6084],[-17.0035,21.4618,2.7876],[-17.011,21.4451,0.0],[-17.0118,21.4287,7.1572],[-17.0143,21.4215,6.7522],[-17.0132,21.4001,5.4566],[-17.0168,21.3854,1.8256],[-17.0271,21.3599,0.0],[-17.0276,21.346,0.0],[-17.0304,21.3399,6.3461],[-17.0324,21.3279,6.4305],[-17.0329,21.3199,4.7422],[-17.0307,21.3182,10.1126],[-17.0304,21.3154,12.2807],[-17.031,21.2985,0.0],[-17.0279,21.2915,5.0759],[-17.0315,21.2849,4.4048],[-17.0335,21.2768,0.0],[-17.0357,21.2746,0.0],[-17.0368,21.2632,8.9575],[-17.0354,21.2607,0.0],[-17.0385,21.2532,8.6871],[-17.0379,21.2496,3.6829],[-17.0404,21.2404,21.0473],[-17.0426,21.2385,0.0],[-17.0446,21.2304,5.8059],[-17.0454,21.2188,0.0],[-17.049,21.2051,16.077],[-17.0487,21.1924,17.666],[-17.051,21.1846,0.0],[-17.0507,21.1735,0.0],[-17.0479,21.1685,0.0],[-17.044,21.1654,0.0],[-17.0443,21.1621,0.0],[-17.0515,21.1446,0.0],[-17.0546,21.124,0.0],[-17.0537,21.1179,0.0],[-17.0579,21.1068,0.0],[-17.0593,21.0954,17.1345],[-17.0637,21.0874,5.4272],[-17.0632,21.084,6.6254],[-17.0651,21.0793,4.191],[-17.0626,21.0707,3.0851],[-17.0635,21.0535,15.437],[-17.0651,21.051,6.1696],[-17.0635,21.046,14.2501],[-17.0632,21.029,3.1629],[-17.0662,21.0196,0.0],[-17.0646,21.0163,0.0],[-17.0654,21.006,1.8158],[-17.0643,21.0007,0.0],[-17.0676,20.9954,2.0569],[-17.071,20.9804,1.1159],[-17.0826,20.966,0.0],[-17.0862,20.956,0.0],[-17.0885,20.939,1.16],[-17.096,20.9224,0.0],[-17.0929,20.9176,1.3799],[-17.0915,20.9115,0.0],[-17.0896,20.9121,1.027],[-17.089,20.9101,0.0],[-17.0849,20.9093,0.3347],[-17.0851,20.9026,0.0],[-17.0815,20.9015,2.3258],[-17.0818,20.8951,1.0999],[-17.0804,20.8932,0.0],[-17.0788,20.8935,0.0],[-17.0782,20.8851,0.0],[-17.0851,20.8701,0.0],[-17.0871,20.869,0.0],[-17.0874,20.866,0.0],[-17.091,20.8629,0.0],[-17.090699999999998,20.8613,0.0],[-17.104,20.8493,0.0],[-17.1054,20.8415,0.0],[-17.104,20.841,0.0],[-17.104,20.836,0.0],[-17.0999,20.8338,2.0544],[-17.0957,20.8257,0.0],[-17.0932,20.826,0.0],[-17.0932,20.8285,0.0],[-17.0904,20.8265,0.0],[-17.0862,20.8285,0.0],[-17.0832,20.8271,2.1648],[-17.0793,20.8151,0.0],[-17.0729,20.8124,1.932],[-17.0735,20.8043,0.0],[-17.0682,20.801,0.0],[-17.0696,20.7976,0.0],[-17.0662,20.7901,0.0],[-17.0624,20.7901,0.0],[-17.0587,20.7787,0.0],[-17.0515,20.7718,0.0],[-17.0518,20.7696,0.0],[-17.0462,20.7707,3.7375],[-17.046,20.7718,3.7375],[-17.0518,20.7742,7.7287],[-17.0665,20.8398,2.9345],[-17.0664,20.923,5.6826],[-17.0488,20.9802,11.436],[-17.0398,21.0403,18.6762],[-17.0261,21.0697,20.0986],[-17.0093,21.0927,17.8049],[-17.0031,21.1046,13.9928],[-16.9873,21.1695,9.4535],[-16.9702,21.2207,11.374],[-16.9397,21.3266,6.6453],[-16.9193,21.3304,2.0933],[-15.8771,21.3412,147.5048],[-14.9609,21.3436,152.9713],[-14.6517,21.3419,165.0186],[-14.6443,21.3433,160.4903],[-14.5965,21.3436,165.1043],[-14.5818,21.3418,162.8606],[-14.5479,21.3431,160.4867],[-13.8829,21.3404,189.9989],[-13.4296,21.3367,204.5778],[-13.201599999999999,21.3338,227.1056],[-13.1501,21.3317,224.461],[-13.1427,21.333,226.2259],[-13.1092,21.3329,226.8753],[-13.0018,21.3308,331.4211],[-13.0143,21.4505,247.6148],[-13.0229,21.5168,249.2585],[-13.0248,21.5213,250.8624]]],
[[[-15.7829,23.8749,0.0],[-15.7865,23.8718,6.3849],[-15.7885,23.8665,0.0],[-15.784,23.871,7.8973],[-15.7829,23.8749,0.0]]]]}
,"properties": {"GID_1": "ESH.4_1","GID_0": "ESH","country": "WesternSahara","province": "OuedelDahab","VARNAME_1": "EdDakhla|OuedEddahab","NL_NAME_1": "NA","TYPE_1": "Willaya","ENGTYPE_1": "Province","CC_1": "NA","HASC_1": "EH.OD","ISO_1": "NA","name": "Ouedel_Dahab.province","area_km2": 126903.82,"hist_schema_id": "Elevation0-9000","hist_area_km2": {"0": 2041.86,"25": 4447.93,"50": 4982.65,"75": 3110.58,"100": 2689.13,"125": 4768.72,"150": 6742.91,"175": 9301.38,"200": 12727.93,"225": 18132.08,"250": 16518.46,"275": 13278.13,"300": 12269.72,"325": 9130.33,"350": 4300.42,"375": 1757.91,"400": 482.25,"425": 58.0,"450": 56.03,"475": 67.03,"500": 22.57,"525": 13.02,"550": 3.63}}}