{"type":"Feature","properties":{"GID_1":"ESH.2_1","GID_0":"ESH","country":"WesternSahara","province":"EsSemara","VARNAME_1":"Smara","NL_NAME_1":"NA","TYPE_1":"Willaya","ENGTYPE_1":"Province","CC_1":"NA","HASC_1":"EH.ES","ISO_1":"NA","name":"Es_Semara.province"},
"geometry":{"type": "MultiPolygon","coordinates": [[[[-8.67,27.6701,471.7903],[-11.7911,27.6791,367.1465],[-11.8426,27.6513,347.125],[-11.8973,27.6099,323.0926],[-11.9192,27.5906,315.7644],[-11.9398,27.5658,310.3538],[-11.9543,27.5453,322.7185],[-11.9765,27.52,304.0329],[-11.991,27.499,286.6069],[-12.0136,27.4714,277.7114],[-12.0515,27.4163,247.1699],[-12.0923,27.3224,271.0964],[-12.0953,27.3016,278.8679],[-12.1024,27.2775,284.6296],[-12.1064,27.2563,289.3874],[-12.1224,27.2034,290.2723],[-12.1273,27.1784,284.198],[-12.1373,27.1506,283.3032],[-12.1569,27.1115,286.2238],[-12.1747,27.083,287.028],[-12.1901,27.0634,297.7057],[-12.2008,27.0406,286.4261],[-12.2089,27.0164,264.9215],[-12.2246,26.9908,250.2381],[-12.2582,26.9062,209.7452],[-12.2936,26.8636,107.2013],[-12.3191,26.8373,184.5032],[-12.3593,26.7982,182.5421],[-12.4182,26.7504,151.3683],[-12.4392,26.7265,177.1053],[-12.4622,26.7052,162.5687],[-12.4836,26.6794,164.0536],[-12.505,26.6569,208.1653],[-12.5208,26.6344,214.8827],[-12.541,26.5906,209.4973],[-12.5546,26.5664,211.7122],[-12.5689,26.5319,211.2195],[-12.5748,26.4968,211.4274],[-12.5775,26.4571,218.3465],[-12.5685,26.4204,227.1562],[-12.5552,26.3806,234.4163],[-12.5328,26.3309,247.3808],[-12.5271,26.2872,257.9396],[-12.5049,26.2568,265.8567],[-12.4868,26.1968,276.0697],[-12.477,26.1353,289.5157],[-12.4587,26.085,304.7917],[-12.4449,25.9943,329.5886],[-12.0039,25.9961,414.0818],[-12.0039,25.9986,423.666],[-10.8413,25.9985,501.8361],[-10.6862,26.0,501.5484],[-10.3741,25.9987,462.2929],[-10.2179,25.9997,451.5467],[-9.8881,25.9977,421.4363],[-9.697,25.999,421.7044],[-9.686,25.9975,421.8064],[-9.5629,26.0,416.9281],[-9.4871,25.9979,409.5084],[-9.2838,25.9993,401.4595],[-8.979,25.9969,401.654],[-8.6742,25.9976,386.9874],[-8.672,26.3044,433.9481],[-8.673,27.0457,445.9936],[-8.6711,27.1265,457.1434],[-8.6734,27.208,458.8882],[-8.6725,27.2883,451.0905],[-8.6739,27.2981,453.7866],[-8.6713,27.4471,462.7087],[-8.6721,27.6079,470.6418],[-8.67,27.6701,471.7903]]]]}}